{
  "name": "SATGUS",
  "line1": "1 62713U 25009DJ  25205.20868404  .00006036  00000+0  54681-3 0  9992",
  "line2": "2 62713  97.7337 285.0307 0003212 135.9272 224.2205 14.95730344 28444",
  "fetched_at": "2025-07-25T00:19:48.737299+00:00"
}